IRIDIUM 36              
1 24967U 97056C   24116.19469985  .00001247  00000+0  41658-3 0  9990
2 24967  86.3992 348.5467 0002020  87.1129 273.0299 14.36749362392186
IRIDIUM 39              
1 25042U 97069D   24116.21057127  .00001905  00000+0  50857-3 0  9995
2 25042  86.3968  30.2147 0015974 260.5709  99.3689 14.47875560388715
IRIDIUM 38              
1 25043U 97069E   24116.21892862  .00001614  00000+0  53597-3 0  9990
2 25043  86.3986  48.9080 0003608  61.6158 298.5403 14.37200310386165
IRIDIUM 42              
1 25077U 97077A   24115.93030913  .00001601  00000+0  55001-3 0  9993
2 25077  86.3979  54.6863 0002775  77.8672 282.2835 14.35505766381177
IRIDIUM 44              
1 25078U 97077B   24116.31063988  .00001528  00000+0  48586-3 0  9993
2 25078  86.3996  37.5763 0001951  34.6506 325.4819 14.39336640383607
IRIDIUM 45              
1 25104U 97082A   24115.87703289  .00025504  00000+0  14518-2 0  9991
2 25104  86.3740 247.2389 0164811  73.6771 288.2515 15.01816792388852
IRIDIUM 24              
1 25105U 97082B   24116.46411843  .00001713  00000+0  52565-3 0  9991
2 25105  86.3890 257.1836 0012188  27.2096 332.9740 14.41104810383283
IRIDIUM 51              
1 25262U 98018A   24115.91160392  .00023322  00000+0  11135-2 0  9991
2 25262  86.3961 257.1979 0149857  19.6546 341.0380 15.09439292383374
