<?xml version="1.0" encoding="UTF-8"?>
<ndm xmlns:xsi="http://www.w3.org/2001/XMLSchema-instance" xsi:noNamespaceSchemaLocation="https://sanaregistry.org/r/ndmxml_unqualified/ndmxml-2.0.0-master-2.0.xsd">
<omm id="CCSDS_OMM_VERS" version="2.0">
<header><CREATION_DATE/><ORIGINATOR/></header><body><segment><metadata><OBJECT_NAME>IRIDIUM 36</OBJECT_NAME><OBJECT_ID>1997-056C</OBJECT_ID><CENTER_NAME>EARTH</CENTER_NAME><REF_FRAME>TEME</REF_FRAME><TIME_SYSTEM>UTC</TIME_SYSTEM><MEAN_ELEMENT_THEORY>SGP4</MEAN_ELEMENT_THEORY></metadata><data><meanElements><EPOCH>2024-04-25T04:40:22.067040</EPOCH><MEAN_MOTION>14.36749362</MEAN_MOTION><ECCENTRICITY>.000202</ECCENTRICITY><INCLINATION>86.3992</INCLINATION><RA_OF_ASC_NODE>348.5467</RA_OF_ASC_NODE><ARG_OF_PERICENTER>87.1129</ARG_OF_PERICENTER><MEAN_ANOMALY>273.0299</MEAN_ANOMALY></meanElements><tleParameters><EPHEMERIS_TYPE>0</EPHEMERIS_TYPE><CLASSIFICATION_TYPE>U</CLASSIFICATION_TYPE><NORAD_CAT_ID>24967</NORAD_CAT_ID><ELEMENT_SET_NO>999</ELEMENT_SET_NO><REV_AT_EPOCH>39218</REV_AT_EPOCH><BSTAR>.41658E-3</BSTAR><MEAN_MOTION_DOT>.1247E-4</MEAN_MOTION_DOT><MEAN_MOTION_DDOT>0</MEAN_MOTION_DDOT></tleParameters></data></segment></body></omm>
<omm id="CCSDS_OMM_VERS" version="2.0">
<header><CREATION_DATE/><ORIGINATOR/></header><body><segment><metadata><OBJECT_NAME>IRIDIUM 39</OBJECT_NAME><OBJECT_ID>1997-069D</OBJECT_ID><CENTER_NAME>EARTH</CENTER_NAME><REF_FRAME>TEME</REF_FRAME><TIME_SYSTEM>UTC</TIME_SYSTEM><MEAN_ELEMENT_THEORY>SGP4</MEAN_ELEMENT_THEORY></metadata><data><meanElements><EPOCH>2024-04-25T05:03:13.357728</EPOCH><MEAN_MOTION>14.47875560</MEAN_MOTION><ECCENTRICITY>.0015974</ECCENTRICITY><INCLINATION>86.3968</INCLINATION><RA_OF_ASC_NODE>30.2147</RA_OF_ASC_NODE><ARG_OF_PERICENTER>260.5709</ARG_OF_PERICENTER><MEAN_ANOMALY>99.3689</MEAN_ANOMALY></meanElements><tleParameters><EPHEMERIS_TYPE>0</EPHEMERIS_TYPE><CLASSIFICATION_TYPE>U</CLASSIFICATION_TYPE><NORAD_CAT_ID>25042</NORAD_CAT_ID><ELEMENT_SET_NO>999</ELEMENT_SET_NO><REV_AT_EPOCH>38871</REV_AT_EPOCH><BSTAR>.50857E-3</BSTAR><MEAN_MOTION_DOT>.1905E-4</MEAN_MOTION_DOT><MEAN_MOTION_DDOT>0</MEAN_MOTION_DDOT></tleParameters></data></segment></body></omm>
<omm id="CCSDS_OMM_VERS" version="2.0">
<header><CREATION_DATE/><ORIGINATOR/></header><body><segment><metadata><OBJECT_NAME>IRIDIUM 38</OBJECT_NAME><OBJECT_ID>1997-069E</OBJECT_ID><CENTER_NAME>EARTH</CENTER_NAME><REF_FRAME>TEME</REF_FRAME><TIME_SYSTEM>UTC</TIME_SYSTEM><MEAN_ELEMENT_THEORY>SGP4</MEAN_ELEMENT_THEORY></metadata><data><meanElements><EPOCH>2024-04-25T05:15:15.432768</EPOCH><MEAN_MOTION>14.37200310</MEAN_MOTION><ECCENTRICITY>.0003608</ECCENTRICITY><INCLINATION>86.3986</INCLINATION><RA_OF_ASC_NODE>48.9080</RA_OF_ASC_NODE><ARG_OF_PERICENTER>61.6158</ARG_OF_PERICENTER><MEAN_ANOMALY>298.5403</MEAN_ANOMALY></meanElements><tleParameters><EPHEMERIS_TYPE>0</EPHEMERIS_TYPE><CLASSIFICATION_TYPE>U</CLASSIFICATION_TYPE><NORAD_CAT_ID>25043</NORAD_CAT_ID><ELEMENT_SET_NO>999</ELEMENT_SET_NO><REV_AT_EPOCH>38616</REV_AT_EPOCH><BSTAR>.53597E-3</BSTAR><MEAN_MOTION_DOT>.1614E-4</MEAN_MOTION_DOT><MEAN_MOTION_DDOT>0</MEAN_MOTION_DDOT></tleParameters></data></segment></body></omm>
<omm id="CCSDS_OMM_VERS" version="2.0">
<header><CREATION_DATE/><ORIGINATOR/></header><body><segment><metadata><OBJECT_NAME>IRIDIUM 42</OBJECT_NAME><OBJECT_ID>1997-077A</OBJECT_ID><CENTER_NAME>EARTH</CENTER_NAME><REF_FRAME>TEME</REF_FRAME><TIME_SYSTEM>UTC</TIME_SYSTEM><MEAN_ELEMENT_THEORY>SGP4</MEAN_ELEMENT_THEORY></metadata><data><meanElements><EPOCH>2024-04-24T22:19:38.708832</EPOCH><MEAN_MOTION>14.35505766</MEAN_MOTION><ECCENTRICITY>.0002775</ECCENTRICITY><INCLINATION>86.3979</INCLINATION><RA_OF_ASC_NODE>54.6863</RA_OF_ASC_NODE><ARG_OF_PERICENTER>77.8672</ARG_OF_PERICENTER><MEAN_ANOMALY>282.2835</MEAN_ANOMALY></meanElements><tleParameters><EPHEMERIS_TYPE>0</EPHEMERIS_TYPE><CLASSIFICATION_TYPE>U</CLASSIFICATION_TYPE><NORAD_CAT_ID>25077</NORAD_CAT_ID><ELEMENT_SET_NO>999</ELEMENT_SET_NO><REV_AT_EPOCH>38117</REV_AT_EPOCH><BSTAR>.55001E-3</BSTAR><MEAN_MOTION_DOT>.1601E-4</MEAN_MOTION_DOT><MEAN_MOTION_DDOT>0</MEAN_MOTION_DDOT></tleParameters></data></segment></body></omm>
<omm id="CCSDS_OMM_VERS" version="2.0">
<header><CREATION_DATE/><ORIGINATOR/></header><body><segment><metadata><OBJECT_NAME>IRIDIUM 44</OBJECT_NAME><OBJECT_ID>1997-077B</OBJECT_ID><CENTER_NAME>EARTH</CENTER_NAME><REF_FRAME>TEME</REF_FRAME><TIME_SYSTEM>UTC</TIME_SYSTEM><MEAN_ELEMENT_THEORY>SGP4</MEAN_ELEMENT_THEORY></metadata><data><meanElements><EPOCH>2024-04-25T07:27:19.285632</EPOCH><MEAN_MOTION>14.39336640</MEAN_MOTION><ECCENTRICITY>.0001951</ECCENTRICITY><INCLINATION>86.3996</INCLINATION><RA_OF_ASC_NODE>37.5763</RA_OF_ASC_NODE><ARG_OF_PERICENTER>34.6506</ARG_OF_PERICENTER><MEAN_ANOMALY>325.4819</MEAN_ANOMALY></meanElements><tleParameters><EPHEMERIS_TYPE>0</EPHEMERIS_TYPE><CLASSIFICATION_TYPE>U</CLASSIFICATION_TYPE><NORAD_CAT_ID>25078</NORAD_CAT_ID><ELEMENT_SET_NO>999</ELEMENT_SET_NO><REV_AT_EPOCH>38360</REV_AT_EPOCH><BSTAR>.48586E-3</BSTAR><MEAN_MOTION_DOT>.1528E-4</MEAN_MOTION_DOT><MEAN_MOTION_DDOT>0</MEAN_MOTION_DDOT></tleParameters></data></segment></body></omm>
<omm id="CCSDS_OMM_VERS" version="2.0">
<header><CREATION_DATE/><ORIGINATOR/></header><body><segment><metadata><OBJECT_NAME>IRIDIUM 45</OBJECT_NAME><OBJECT_ID>1997-082A</OBJECT_ID><CENTER_NAME>EARTH</CENTER_NAME><REF_FRAME>TEME</REF_FRAME><TIME_SYSTEM>UTC</TIME_SYSTEM><MEAN_ELEMENT_THEORY>SGP4</MEAN_ELEMENT_THEORY></metadata><data><meanElements><EPOCH>2024-04-24T21:02:55.641696</EPOCH><MEAN_MOTION>15.01816792</MEAN_MOTION><ECCENTRICITY>.0164811</ECCENTRICITY><INCLINATION>86.3740</INCLINATION><RA_OF_ASC_NODE>247.2389</RA_OF_ASC_NODE><ARG_OF_PERICENTER>73.6771</ARG_OF_PERICENTER><MEAN_ANOMALY>288.2515</MEAN_ANOMALY></meanElements><tleParameters><EPHEMERIS_TYPE>0</EPHEMERIS_TYPE><CLASSIFICATION_TYPE>U</CLASSIFICATION_TYPE><NORAD_CAT_ID>25104</NORAD_CAT_ID><ELEMENT_SET_NO>999</ELEMENT_SET_NO><REV_AT_EPOCH>38885</REV_AT_EPOCH><BSTAR>.14518E-2</BSTAR><MEAN_MOTION_DOT>.25504E-3</MEAN_MOTION_DOT><MEAN_MOTION_DDOT>0</MEAN_MOTION_DDOT></tleParameters></data></segment></body></omm>
<omm id="CCSDS_OMM_VERS" version="2.0">
<header><CREATION_DATE/><ORIGINATOR/></header><body><segment><metadata><OBJECT_NAME>IRIDIUM 24</OBJECT_NAME><OBJECT_ID>1997-082B</OBJECT_ID><CENTER_NAME>EARTH</CENTER_NAME><REF_FRAME>TEME</REF_FRAME><TIME_SYSTEM>UTC</TIME_SYSTEM><MEAN_ELEMENT_THEORY>SGP4</MEAN_ELEMENT_THEORY></metadata><data><meanElements><EPOCH>2024-04-25T11:08:19.832352</EPOCH><MEAN_MOTION>14.41104810</MEAN_MOTION><ECCENTRICITY>.0012188</ECCENTRICITY><INCLINATION>86.3890</INCLINATION><RA_OF_ASC_NODE>257.1836</RA_OF_ASC_NODE><ARG_OF_PERICENTER>27.2096</ARG_OF_PERICENTER><MEAN_ANOMALY>332.9740</MEAN_ANOMALY></meanElements><tleParameters><EPHEMERIS_TYPE>0</EPHEMERIS_TYPE><CLASSIFICATION_TYPE>U</CLASSIFICATION_TYPE><NORAD_CAT_ID>25105</NORAD_CAT_ID><ELEMENT_SET_NO>999</ELEMENT_SET_NO><REV_AT_EPOCH>38328</REV_AT_EPOCH><BSTAR>.52565E-3</BSTAR><MEAN_MOTION_DOT>.1713E-4</MEAN_MOTION_DOT><MEAN_MOTION_DDOT>0</MEAN_MOTION_DDOT></tleParameters></data></segment></body></omm>
<omm id="CCSDS_OMM_VERS" version="2.0">
<header><CREATION_DATE/><ORIGINATOR/></header><body><segment><metadata><OBJECT_NAME>IRIDIUM 51</OBJECT_NAME><OBJECT_ID>1998-018A</OBJECT_ID><CENTER_NAME>EARTH</CENTER_NAME><REF_FRAME>TEME</REF_FRAME><TIME_SYSTEM>UTC</TIME_SYSTEM><MEAN_ELEMENT_THEORY>SGP4</MEAN_ELEMENT_THEORY></metadata><data><meanElements><EPOCH>2024-04-24T21:52:42.578688</EPOCH><MEAN_MOTION>15.09439292</MEAN_MOTION><ECCENTRICITY>.0149857</ECCENTRICITY><INCLINATION>86.3961</INCLINATION><RA_OF_ASC_NODE>257.1979</RA_OF_ASC_NODE><ARG_OF_PERICENTER>19.6546</ARG_OF_PERICENTER><MEAN_ANOMALY>341.0380</MEAN_ANOMALY></meanElements><tleParameters><EPHEMERIS_TYPE>0</EPHEMERIS_TYPE><CLASSIFICATION_TYPE>U</CLASSIFICATION_TYPE><NORAD_CAT_ID>25262</NORAD_CAT_ID><ELEMENT_SET_NO>999</ELEMENT_SET_NO><REV_AT_EPOCH>38337</REV_AT_EPOCH><BSTAR>.11135E-2</BSTAR><MEAN_MOTION_DOT>.23322E-3</MEAN_MOTION_DOT><MEAN_MOTION_DDOT>0</MEAN_MOTION_DDOT></tleParameters></data></segment></body></omm>

</ndm>
